start=new Date('2022-11-04T00:00:00.000Z').valueOf();
sats=[{"FILE":"3643813","PERIOD":"95.592","OBJECT_ID":"2021-018BL","CLASSIFICATION_TYPE":"U","MEAN_MOTION":"15.06398249","TLE_LINE2":"2 47845  53.0554 338.3645 0001904  46.1076 314.0070 15.06398249 92386","COUNTRY_CODE":"US","DECAY_DATE":null,"APOAPSIS":"548.538","SITE":"AFETR","ARG_OF_PERICENTER":"46.1076","OBJECT_NAME":"STARLINK-2453","EPHEMERIS_TYPE":"0","INCLINATION":"53.0554","GP_ID":"216831595","MEAN_MOTION_DDOT":"0.0000000000000","LAUNCH_DATE":"2021-03-11","TIME_SYSTEM":"UTC","EPOCH":"2022-11-03T11:20:51.113184","MEAN_ANOMALY":"314.0070","ELEMENT_SET_NO":"999","CENTER_NAME":"EARTH","OBJECT_TYPE":"PAYLOAD","TLE_LINE1":"1 47845U 21018BL  22307.47281381  .00001128  00000-0  94640-4 0  9997","MEAN_MOTION_DOT":"0.00001128","PERIAPSIS":"545.900","SEMIMAJOR_AXIS":"6925.354","NORAD_CAT_ID":"47845","BSTAR":"0.00009464000000","RA_OF_ASC_NODE":"338.3645","ECCENTRICITY":"0.00019040","MEAN_ELEMENT_THEORY":"SGP4","RCS_SIZE":"LARGE","REV_AT_EPOCH":"9238","REF_FRAME":"TEME"},{"CENTER_NAME":"EARTH","OBJECT_TYPE":"PAYLOAD","TLE_LINE1":"1 47846U 21018BM  22307.60087222  .00001235  00000-0  10180-3 0  9996","MEAN_MOTION_DOT":"0.00001235","PERIAPSIS":"545.770","MEAN_ANOMALY":"318.2525","ELEMENT_SET_NO":"999","MEAN_ELEMENT_THEORY":"SGP4","ECCENTRICITY":"0.00020530","RCS_SIZE":"LARGE","REV_AT_EPOCH":"9245","REF_FRAME":"TEME","NORAD_CAT_ID":"47846","SEMIMAJOR_AXIS":"6925.327","RA_OF_ASC_NODE":"337.7918","BSTAR":"0.00010180000000","MEAN_MOTION":"15.06407022","TLE_LINE2":"2 47846  53.0535 337.7918 0002053  41.8621 318.2525 15.06407022 92455","COUNTRY_CODE":"US","DECAY_DATE":null,"APOAPSIS":"548.614","SITE":"AFETR","EPHEMERIS_TYPE":"0","ARG_OF_PERICENTER":"41.8621","OBJECT_NAME":"STARLINK-2456","FILE":"3644033","PERIOD":"95.592","OBJECT_ID":"2021-018BM","CLASSIFICATION_TYPE":"U","MEAN_MOTION_DDOT":"0.0000000000000","LAUNCH_DATE":"2021-03-11","TIME_SYSTEM":"UTC","EPOCH":"2022-11-03T14:25:15.359808","INCLINATION":"53.0535","GP_ID":"216861177"},{"ELEMENT_SET_NO":"999","MEAN_ANOMALY":"299.8104","CENTER_NAME":"EARTH","PERIAPSIS":"546.176","OBJECT_TYPE":"PAYLOAD","TLE_LINE1":"1 47860U 21021A   22307.40739413  .00000963  00000-0  83538-4 0  9995","MEAN_MOTION_DOT":"0.00000963","RA_OF_ASC_NODE":"8.6478","BSTAR":"0.00008353800000","NORAD_CAT_ID":"47860","SEMIMAJOR_AXIS":"6925.360","RCS_SIZE":"LARGE","REV_AT_EPOCH":"9172","MEAN_ELEMENT_THEORY":"SGP4","ECCENTRICITY":"0.00015140","REF_FRAME":"TEME","CLASSIFICATION_TYPE":"U","FILE":"3643813","PERIOD":"95.592","OBJECT_ID":"2021-021A","COUNTRY_CODE":"US","TLE_LINE2":"2 47860  53.0558   8.6478 0001514  60.3036 299.8104 15.06396397 91726","DECAY_DATE":null,"MEAN_MOTION":"15.06396397","SITE":"AFETR","APOAPSIS":"548.273","OBJECT_NAME":"STARLINK-2258","ARG_OF_PERICENTER":"60.3036","EPHEMERIS_TYPE":"0","INCLINATION":"53.0558","GP_ID":"216830345","TIME_SYSTEM":"UTC","LAUNCH_DATE":"2021-03-14","MEAN_MOTION_DDOT":"0.0000000000000","EPOCH":"2022-11-03T09:46:38.852832"},{"CLASSIFICATION_TYPE":"U","OBJECT_ID":"2021-021B","PERIOD":"95.592","FILE":"3644033","OBJECT_NAME":"STARLINK-2280","ARG_OF_PERICENTER":"50.5089","EPHEMERIS_TYPE":"0","APOAPSIS":"548.458","SITE":"AFETR","DECAY_DATE":null,"COUNTRY_CODE":"US","TLE_LINE2":"2 47861  53.0547 352.9695 0001836  50.5089 309.6062 15.06408723 92065","MEAN_MOTION":"15.06408723","GP_ID":"216860427","INCLINATION":"53.0547","EPOCH":"2022-11-03T13:23:35.517408","TIME_SYSTEM":"UTC","MEAN_MOTION_DDOT":"0.0000000000000","LAUNCH_DATE":"2021-03-14","ELEMENT_SET_NO":"999","MEAN_ANOMALY":"309.6062","PERIAPSIS":"545.915","MEAN_MOTION_DOT":"0.00004110","TLE_LINE1":"1 47861U 21021B   22307.55804997  .00004110  00000-0  29458-3 0  9990","OBJECT_TYPE":"PAYLOAD","CENTER_NAME":"EARTH","BSTAR":"0.00029458000000","RA_OF_ASC_NODE":"352.9695","SEMIMAJOR_AXIS":"6925.322","NORAD_CAT_ID":"47861","REF_FRAME":"TEME","RCS_SIZE":"LARGE","REV_AT_EPOCH":"9206","ECCENTRICITY":"0.00018360","MEAN_ELEMENT_THEORY":"SGP4"},{"PERIAPSIS":"546.032","OBJECT_TYPE":"PAYLOAD","TLE_LINE1":"1 47862U 21021C   22307.53824383 -.00000157  00000-0  83623-5 0  9994","MEAN_MOTION_DOT":"-0.00000157","CENTER_NAME":"EARTH","ELEMENT_SET_NO":"999","MEAN_ANOMALY":"301.2784","REF_FRAME":"TEME","RCS_SIZE":"LARGE","REV_AT_EPOCH":"9212","MEAN_ELEMENT_THEORY":"SGP4","ECCENTRICITY":"0.00016960","BSTAR":"0.00000836230000","RA_OF_ASC_NODE":"348.0851","NORAD_CAT_ID":"47862","SEMIMAJOR_AXIS":"6925.342","SITE":"AFETR","APOAPSIS":"548.381","ARG_OF_PERICENTER":"58.8371","OBJECT_NAME":"STARLINK-2291","EPHEMERIS_TYPE":"0","COUNTRY_CODE":"US","TLE_LINE2":"2 47862  53.0550 348.0851 0001696  58.8371 301.2784 15.06402226 92127","DECAY_DATE":null,"MEAN_MOTION":"15.06402226","CLASSIFICATION_TYPE":"U","FILE":"3643813","OBJECT_ID":"2021-021C","PERIOD":"95.592","EPOCH":"2022-11-03T12:55:04.266912","TIME_SYSTEM":"UTC","MEAN_MOTION_DDOT":"0.0000000000000","LAUNCH_DATE":"2021-03-14","GP_ID":"216831345","INCLINATION":"53.0550"},{"MEAN_ANOMALY":"291.9989","ELEMENT_SET_NO":"999","OBJECT_TYPE":"PAYLOAD","TLE_LINE1":"1 47863U 21021D   22307.56311929  .00002064  00000-0  15746-3 0  9992","MEAN_MOTION_DOT":"0.00002064","PERIAPSIS":"546.265","CENTER_NAME":"EARTH","SEMIMAJOR_AXIS":"6925.363","NORAD_CAT_ID":"47863","BSTAR":"0.00015746000000","RA_OF_ASC_NODE":"357.9658","REF_FRAME":"TEME","MEAN_ELEMENT_THEORY":"SGP4","ECCENTRICITY":"0.00013910","REV_AT_EPOCH":"9199","RCS_SIZE":"LARGE","FILE":"3644033","OBJECT_ID":"2021-021D","PERIOD":"95.592","CLASSIFICATION_TYPE":"U","APOAPSIS":"548.191","SITE":"AFETR","OBJECT_NAME":"STARLINK-2293","ARG_OF_PERICENTER":"68.1147","EPHEMERIS_TYPE":"0","MEAN_MOTION":"15.06395248","TLE_LINE2":"2 47863  53.0546 357.9658 0001391  68.1147 291.9989 15.06395248 91995","COUNTRY_CODE":"US","DECAY_DATE":null,"GP_ID":"216861424","INCLINATION":"53.0546","EPOCH":"2022-11-03T13:30:53.506656","LAUNCH_DATE":"2021-03-14","MEAN_MOTION_DDOT":"0.0000000000000","TIME_SYSTEM":"UTC"},{"CENTER_NAME":"EARTH","PERIAPSIS":"545.990","MEAN_MOTION_DOT":"0.00006530","TLE_LINE1":"1 47864U 21021E   22307.40923306  .00006530  00000-0  45676-3 0  9991","OBJECT_TYPE":"PAYLOAD","ELEMENT_SET_NO":"999","MEAN_ANOMALY":"304.0324","REV_AT_EPOCH":"9208","RCS_SIZE":"LARGE","ECCENTRICITY":"0.00017310","MEAN_ELEMENT_THEORY":"SGP4","REF_FRAME":"TEME","BSTAR":"0.00045676000000","RA_OF_ASC_NODE":"348.7046","NORAD_CAT_ID":"47864","SEMIMAJOR_AXIS":"6925.324","DECAY_DATE":null,"COUNTRY_CODE":"US","TLE_LINE2":"2 47864  53.0558 348.7046 0001731  56.0830 304.0324 15.06408169 92088","MEAN_MOTION":"15.06408169","OBJECT_NAME":"STARLINK-2304","ARG_OF_PERICENTER":"56.0830","EPHEMERIS_TYPE":"0","APOAPSIS":"548.387","SITE":"AFETR","CLASSIFICATION_TYPE":"U","PERIOD":"95.592","OBJECT_ID":"2021-021E","FILE":"3643813","TIME_SYSTEM":"UTC","MEAN_MOTION_DDOT":"0.0000000000000","LAUNCH_DATE":"2021-03-14","EPOCH":"2022-11-03T09:49:17.736384","INCLINATION":"53.0558","GP_ID":"216830845"},{"EPOCH":"2022-11-03T16:03:27.174528","TIME_SYSTEM":"UTC","MEAN_MOTION_DDOT":"0.0000000000000","LAUNCH_DATE":"2021-03-14","GP_ID":"216859927","INCLINATION":"53.0556","OBJECT_NAME":"STARLINK-2310","EPHEMERIS_TYPE":"0","ARG_OF_PERICENTER":"58.9621","SITE":"AFETR","APOAPSIS":"548.272","DECAY_DATE":null,"COUNTRY_CODE":"US","TLE_LINE2":"2 47865  53.0556 357.4860 0001534  58.9621 301.1519 15.06401194 92117","MEAN_MOTION":"15.06401194","CLASSIFICATION_TYPE":"U","PERIOD":"95.592","OBJECT_ID":"2021-021F","FILE":"3644033","REF_FRAME":"TEME","REV_AT_EPOCH":"9211","RCS_SIZE":"LARGE","ECCENTRICITY":"0.00015340","MEAN_ELEMENT_THEORY":"SGP4","RA_OF_ASC_NODE":"357.4860","BSTAR":"0.00021883000000","SEMIMAJOR_AXIS":"6925.345","NORAD_CAT_ID":"47865","PERIAPSIS":"546.148","MEAN_MOTION_DOT":"0.00002980","TLE_LINE1":"1 47865U 21021F   22307.66906452  .00002980  00000-0  21883-3 0  9992","OBJECT_TYPE":"PAYLOAD","CENTER_NAME":"EARTH","ELEMENT_SET_NO":"999","MEAN_ANOMALY":"301.1519"},{"OBJECT_ID":"2021-021G","PERIOD":"95.592","FILE":"3644033","CLASSIFICATION_TYPE":"U","OBJECT_NAME":"STARLINK-2320","ARG_OF_PERICENTER":"56.3107","EPHEMERIS_TYPE":"0","SITE":"AFETR","APOAPSIS":"548.271","MEAN_MOTION":"15.06405964","DECAY_DATE":null,"TLE_LINE2":"2 47866  53.0553 358.0637 0001554  56.3107 303.8030 15.06405964 92146","COUNTRY_CODE":"US","GP_ID":"216861179","INCLINATION":"53.0553","EPOCH":"2022-11-03T12:59:02.612544","LAUNCH_DATE":"2021-03-14","MEAN_MOTION_DDOT":"0.0000000000000","TIME_SYSTEM":"UTC","MEAN_ANOMALY":"303.8030","ELEMENT_SET_NO":"999","TLE_LINE1":"1 47866U 21021G   22307.54100246  .00001722  00000-0  13442-3 0  9992","MEAN_MOTION_DOT":"0.00001722","OBJECT_TYPE":"PAYLOAD","PERIAPSIS":"546.119","CENTER_NAME":"EARTH","NORAD_CAT_ID":"47866","SEMIMAJOR_AXIS":"6925.330","BSTAR":"0.00013442000000","RA_OF_ASC_NODE":"358.0637","REF_FRAME":"TEME","MEAN_ELEMENT_THEORY":"SGP4","ECCENTRICITY":"0.00015540","RCS_SIZE":"MEDIUM","REV_AT_EPOCH":"9214"},{"MEAN_ANOMALY":"315.6487","ELEMENT_SET_NO":"999","MEAN_MOTION_DOT":"0.00000475","TLE_LINE1":"1 47867U 21021H   22307.53455022  .00000475  00000-0  50811-4 0  9993","OBJECT_TYPE":"PAYLOAD","PERIAPSIS":"545.961","CENTER_NAME":"EARTH","SEMIMAJOR_AXIS":"6925.339","NORAD_CAT_ID":"47867","BSTAR":"0.00005081100000","RA_OF_ASC_NODE":"348.0937","REF_FRAME":"TEME","MEAN_ELEMENT_THEORY":"SGP4","ECCENTRICITY":"0.00017950","REV_AT_EPOCH":"9208","RCS_SIZE":"LARGE","PERIOD":"95.592","OBJECT_ID":"2021-021H","FILE":"3644033","CLASSIFICATION_TYPE":"U","EPHEMERIS_TYPE":"0","OBJECT_NAME":"STARLINK-2321","ARG_OF_PERICENTER":"44.4645","SITE":"AFETR","APOAPSIS":"548.447","MEAN_MOTION":"15.06403052","DECAY_DATE":null,"COUNTRY_CODE":"US","TLE_LINE2":"2 47867  53.0561 348.0937 0001795  44.4645 315.6487 15.06403052 92086","GP_ID":"216860924","INCLINATION":"53.0561","EPOCH":"2022-11-03T12:49:45.139008","MEAN_MOTION_DDOT":"0.0000000000000","LAUNCH_DATE":"2021-03-14","TIME_SYSTEM":"UTC"}];
